LANDSAT 9               
1 49260U 21088A   23299.80226670  .00000561  00000+0  13460-3 0  9994
2 49260  98.2172   8.0347 0001089  92.9993 267.1330 14.57120849110569
